BEIDOU 3 (C01)          
1 36287U 10001A   22054.50702618 -.00000281  00000+0  00000+0 0  9990
2 36287   1.8829  47.7717 0002418  14.6993  53.8160  1.00272604 44379
BEIDOU 5 (C06)          
1 36828U 10036A   22054.50040491 -.00000125  00000+0  00000+0 0  9990
2 36828  54.1923 177.2732 0027536 180.9780  83.7739  1.00279448 42433
BEIDOU 6 (C04)          
1 37210U 10057A   22054.59567604 -.00000113  00000+0  00000+0 0  9995
2 37210   0.9618  53.9543 0003987 158.6148 315.3763  1.00271818 41492
BEIDOU 7 (C07)          
1 37256U 10068A   22054.39267161 -.00000177  00000+0  00000+0 0  9990
2 37256  50.4135 291.0106 0017583 186.4912 285.1588  1.00286069 41001
BEIDOU 8 (C08)          
1 37384U 11013A   22054.42879149 -.00000158  00000+0  00000+0 0  9991
2 37384  60.1334  55.3869 0020011 195.4288 165.0553  1.00286043 39888
BEIDOU 9 (C09)          
1 37763U 11038A   22053.80952016 -.00000062  00000+0  00000+0 0  9999
2 37763  54.4758 179.7573 0089103 225.4916 132.4798  1.00258600 38849
BEIDOU 10 (C10)         
1 37948U 11073A   22053.90330639 -.00000131  00000+0  00000+0 0  9992
2 37948  50.5288 290.6500 0076981 218.5068  64.6612  1.00278871 37609
BEIDOU 11 (C05)         
1 38091U 12008A   22053.77371855  .00000057  00000+0  00000+0 0  9997
2 38091   2.1101  71.8948 0008636 285.6697 132.3309  1.00274173 36680
BEIDOU 12 (C11)         
1 38250U 12018A   22053.63117112 -.00000078  00000+0  00000+0 0  9998
2 38250  56.7212 357.3524 0023548 257.1046  10.1939  1.86234407 66942
BEIDOU 13 (C12)         
1 38251U 12018B   22053.49331757 -.00000078  00000+0  00000+0 0  9996
2 38251  56.6410 356.6887 0014409 263.5605 315.5823  1.86234334 66947
BEIDOU 15 (C14)         
1 38775U 12050B   22054.48179245 -.00000010  00000+0  00000+0 0  9991
2 38775  55.3342 115.5217 0013515 319.2270  39.3682  1.86231286 64339
BEIDOU 16 (C02)         
1 38953U 12059A   22053.82063442 -.00000173  00000+0  00000+0 0  9996
2 38953   1.7042  84.6293 0013281 285.3141 162.1161  1.00268393 34114
BEIDOU 17 (C31)         
1 40549U 15019A   22053.89888243 -.00000170  00000+0  00000+0 0  9997
2 40549  52.0805 314.0863 0035308 190.2833  67.6827  1.00266848 25282
BEIDOU 18 (C57)         
1 40748U 15037A   22054.17497451 -.00000083  00000+0  00000+0 0  9990
2 40748  55.8978 355.6022 0005130 350.6400 235.1250  1.86233319 44784
BEIDOU 19 (C58)         
1 40749U 15037B   22054.34423214 -.00000084  00000+0  00000+0 0  9997
2 40749  55.9006 355.5856 0007009 322.4576 151.7772  1.86232251 44786
BEIDOU 20 (C18)         
1 40938U 15053A   22054.27423736 -.00000099  00000+0  00000+0 0  9992
2 40938  51.6757 277.1825 0042963 193.3020 237.6194  1.00271664 23555
BEIDOU IGSO-6 (C13)     
1 41434U 16021A   22053.47721708 -.00000127  00000+0  00000+0 0  9993
2 41434  57.9315  54.0239 0044243 219.2590 145.5631  1.00264396 21689
BEIDOU-2 G7 (C03)       
1 41586U 16037A   22054.50109536 -.00000355  00000+0  00000+0 0  9995
2 41586   1.7231  67.8805 0008753 359.5425  16.8610  1.00273840 20997
BEIDOU-3 M1 (C19)       
1 43001U 17069A   22053.98037094 -.00000006  00000+0  00000+0 0  9998
2 43001  55.4875 115.5237 0010354 285.1285 253.4598  1.86231627 29263
BEIDOU-3 M2 (C20)       
1 43002U 17069B   22054.26530775 -.00000008  00000+0  00000+0 0  9997
2 43002  55.4863 115.5514 0008274 305.6971 107.0913  1.86231402 29263
BEIDOU-3 M3 (C27)       
1 43107U 18003A   22054.30595571 -.00000084  00000+0  00000+0 0  9996
2 43107  55.3460 356.5656 0004693  35.8378 210.2183  1.86232484 28029
BEIDOU-3 M4 (C28)       
1 43108U 18003B   22054.24086351 -.00000084  00000+0  00000+0 0  9991
2 43108  55.3388 356.5573 0003622 271.4284 335.5186  1.86231064 28029
BEIDOU-3 M5 (C21)       
1 43207U 18018A   22054.33130823 -.00000009  00000+0  00000+0 0  9998
2 43207  55.4457 115.6303 0005809 324.0225  44.4411  1.86231620 27418
BEIDOU-3 M6 (C22)       
1 43208U 18018B   22053.31149236 -.00000001  00000+0  00000+0 0  9996
2 43208  55.4452 115.6694 0008503 294.5287  65.4537  1.86231708 27396
BEIDOU-3 M7 (C29)       
1 43245U 18029A   22053.90548899 -.00000082  00000+0  00000+0 0  9991
2 43245  55.2651 354.3556 0001502 322.0759 285.8362  1.86232545 26559
BEIDOU-3 M8 (C30)       
1 43246U 18029B   22053.63577432 -.00000081  00000+0  10000-3 0  9991
2 43246  55.2627 354.3955 0005211 347.0117 126.5099  1.86232789 26549
BEIDOU IGSO-7 (C16)     
1 43539U 18057A   22052.73324094 -.00000117  00000+0  00000+0 0  9996
2 43539  55.0718 176.7369 0045288 223.8251 124.4767  1.00292980 13344
BEIDOU-3 M9 (C23)       
1 43581U 18062A   22054.49682167  .00000094  00000+0  00000+0 0  9995
2 43581  54.3126 235.9858 0002101 327.6967 213.8104  1.86231954 24305
BEIDOU-3 M10 (C24)      
1 43582U 18062B   22053.89105541  .00000093  00000+0  00000+0 0  9994
2 43582  54.3119 235.9965 0006769  22.5724 204.4773  1.86232233 24290
BEIDOU-3 M11 (C25)      
1 43602U 18067A   22054.56269410  .00000094  00000+0  00000+0 0  9994
2 43602  54.3931 234.5785 0007958  14.9905 343.9622  1.86231669 23795
BEIDOU-3 M12 (C26)      
1 43603U 18067B   22054.46026034  .00000094  00000+0  00000+0 0  9997
2 43603  54.3895 234.5494 0004868  11.1094 189.5655  1.86231632 23810
BEIDOU-3 M13 (C32)      
1 43622U 18072A   22053.61561693 -.00000003  00000+0  00000+0 0  9996
2 43622  55.4123 115.2136 0007202 278.8713 105.1324  1.86231449 23318
BEIDOU-3 M14 (C33)      
1 43623U 18072B   22053.89270625 -.00000006  00000+0  00000+0 0  9992
2 43623  55.4143 115.1963 0004805 299.6845   0.3298  1.86231471 23312
BEIDOU-3 M15 (C34)      
1 43647U 18078A   22053.36686596 -.00000080  00000+0  10000-3 0  9991
2 43647  55.1596 354.5431 0007531 354.1189 208.7512  1.86232751 22812
BEIDOU-3 M16 (C35)      
1 43648U 18078B   22054.10697288 -.00000083  00000+0  00000+0 0  9993
2 43648  55.1561 354.5238 0005364   0.1349 246.9477  1.86232238 22845
BEIDOU-3 G1 (C59)       
1 43683U 18085A   22054.56790491 -.00000279  00000+0  00000+0 0  9997
2 43683   0.8385 186.7565 0001525 349.1991 321.9658  1.00271894 12264
BEIDOU-3 M17 (C36)      
1 43706U 18093A   22053.89055329  .00000093  00000+0  00000+0 0  9994
2 43706  54.3949 235.8831 0007201 284.1979  75.7164  1.86231630 22189
BEIDOU-3 M18 (C37)      
1 43707U 18093B   22053.66045138  .00000093  00000+0  00000+0 0  9997
2 43707  54.3950 235.8822 0006910 320.2827 336.4697  1.86232190 22182
BEIDOU-3 IGSO-1 (C38)   
1 44204U 19023A   22054.03690836 -.00000193  00000+0  00000+0 0  9999
2 44204  56.3882  54.1960 0021141 205.5567  24.1726  1.00293090 10560
BEIDOU-2 G8             
1 44231U 19027A   22053.62285605 -.00000247  00000+0  00000+0 0  9991
2 44231   0.5924  69.0534 0005387 144.3259 307.7624  1.00266933 10273
BEIDOU-3 IGSO-2 (C39)   
1 44337U 19035A   22054.59169539 -.00000138  00000+0  00000+0 0  9990
2 44337  55.1134 172.7398 0022453 189.1631 122.6057  1.00288092  9905
BEIDOU-3 M23 (C45)      
1 44542U 19061A   22053.28899927  .00000091  00000+0  00000+0 0  9990
2 44542  54.6210 236.0228 0008327 354.0754   5.9081  1.86231236 16440
BEIDOU-3 M24 (C46)      
1 44543U 19061B   22053.69347782  .00000093  00000+0  00000+0 0  9995
2 44543  54.6179 235.9791 0005519 353.7474 188.5730  1.86231779 16444
BEIDOU-3 IGSO-3         
1 44709U 19073A   22053.56976593 -.00000166  00000+0  00000+0 0  9998
2 44709  57.4473 297.5773 0019810 174.2041   3.9692  1.00290901  8654
BEIDOU-3 M21            
1 44793U 19078A   22053.94216093 -.00000083  00000+0  10000-3 0  9993
2 44793  55.0088 354.5587 0007194   0.3531 182.3063  1.86232222 15316
BEIDOU-3 M22            
1 44794U 19078B   22054.50709296 -.00000086  00000+0  00000+0 0  9997
2 44794  54.9830 354.5331 0005279 354.6820 118.1823  1.86232724 15324
BEIDOU-3 M19            
1 44864U 19090A   22053.96225336 -.00000006  00000+0  00000+0 0  9998
2 44864  55.3472 115.4191 0017516 266.6772  35.4171  1.86231794 14896
BEIDOU-3 M20            
1 44865U 19090B   22054.44202110 -.00000010  00000+0  00000+0 0  9993
2 44865  55.3489 115.4344 0015743 280.3824  73.2600  1.86231754 14877
BEIDOU-3 G2             
1 45344U 20017A   22054.49499008 -.00000139  00000+0  00000+0 0  9998
2 45344   2.1527 346.5632 0002299  63.1096   1.8736  1.00270037  7489
BEIDOU-3 G3             
1 45807U 20040A   22054.07041059 -.00000352  00000+0  00000+0 0  9998
2 45807   1.7042 300.7142 0008108 348.0778 359.9822  1.00275629  6287
